{
    "links": {
        "self": "http://www.neowsapp.com/rest/v1/neo/3644685?api_key=iIulBulltgU6a56xZRHN4H3l9WmuAYTsLGpBGhQ2"
    },
    "id": "3644685",
    "neo_reference_id": "3644685",
    "name": "(2013 NK)",
    "designation": "2013 NK",
    "nasa_jpl_url": "http://ssd.jpl.nasa.gov/sbdb.cgi?sstr=3644685",
    "absolute_magnitude_h": 21.4,
    "estimated_diameter": {
        "kilometers": {
            "estimated_diameter_min": 0.1394938229,
            "estimated_diameter_max": 0.3119176705
        },
        "meters": {
            "estimated_diameter_min": 139.4938229344,
            "estimated_diameter_max": 311.9176705226
        },
        "miles": {
            "estimated_diameter_min": 0.0866774163,
            "estimated_diameter_max": 0.1938165949
        },
        "feet": {
            "estimated_diameter_min": 457.6569140361,
            "estimated_diameter_max": 1023.3519701574
        }
    },
    "is_potentially_hazardous_asteroid": false,
    "close_approach_data": [
        {
            "close_approach_date": "2002-08-13",
            "close_approach_date_full": "2002-Aug-13 20:32",
            "epoch_date_close_approach": 1029270720000,
            "relative_velocity": {
                "kilometers_per_second": "2.8097021675",
                "kilometers_per_hour": "10114.9278031712",
                "miles_per_hour": "6285.0227785871"
            },
            "miss_distance": {
                "astronomical": "0.3180951377",
                "lunar": "123.7390085653",
                "kilometers": "47586355.057276699",
                "miles": "29568789.9095844862"
            },
            "orbiting_body": "Earth"
        },
        {
            "close_approach_date": "2013-08-19",
            "close_approach_date_full": "2013-Aug-19 05:33",
            "epoch_date_close_approach": 1376890380000,
            "relative_velocity": {
                "kilometers_per_second": "2.6067124038",
                "kilometers_per_hour": "9384.1646537127",
                "miles_per_hour": "5830.9549760806"
            },
            "miss_distance": {
                "astronomical": "0.2786215879",
                "lunar": "108.3837976931",
                "kilometers": "41681196.085857773",
                "miles": "25899494.2722443474"
            },
            "orbiting_body": "Earth"
        },
        {
            "close_approach_date": "2024-08-21",
            "close_approach_date_full": "2024-Aug-21 18:32",
            "epoch_date_close_approach": 1724265120000,
            "relative_velocity": {
                "kilometers_per_second": "2.6174864547",
                "kilometers_per_hour": "9422.9512368917",
                "miles_per_hour": "5855.0554505009"
            },
            "miss_distance": {
                "astronomical": "0.2686542407",
                "lunar": "104.5064996323",
                "kilometers": "40190102.175187309",
                "miles": "24972971.4795865042"
            },
            "orbiting_body": "Earth"
        },
        {
            "close_approach_date": "2035-08-30",
            "close_approach_date_full": "2035-Aug-30 20:08",
            "epoch_date_close_approach": 2072117280000,
            "relative_velocity": {
                "kilometers_per_second": "2.9456842816",
                "kilometers_per_hour": "10604.4634136129",
                "miles_per_hour": "6589.2011694196"
            },
            "miss_distance": {
                "astronomical": "0.3060355132",
                "lunar": "119.0478146348",
                "kilometers": "45782260.919076884",
                "miles": "28447777.7941296392"
            },
            "orbiting_body": "Earth"
        }
    ],
    "orbital_data": {
        "orbit_id": "28",
        "orbit_determination_date": "2017-04-06 08:45:28",
        "first_observation_date": "2013-07-01",
        "last_observation_date": "2013-11-08",
        "data_arc_in_days": 130,
        "observations_used": 85,
        "orbit_uncertainty": "5",
        "minimum_orbit_intersection": ".266118",
        "jupiter_tisserand_invariant": "3.386",
        "epoch_osculation": "2459000.5",
        "eccentricity": ".4651299601023236",
        "semi_major_axis": "2.374356596333587",
        "inclination": "3.258266596026298",
        "ascending_node_longitude": "265.3542464357723",
        "orbital_period": "1336.341156295601",
        "perihelion_distance": "1.269972207412257",
        "perihelion_argument": "67.20627889405782",
        "aphelion_distance": "3.478740985254916",
        "perihelion_time": "2459212.368530789659",
        "mean_anomaly": "302.9242519958686",
        "mean_motion": ".2693922867704954",
        "equinox": "J2000",
        "orbit_class": {
            "orbit_class_type": "AMO",
            "orbit_class_description": "Near-Earth asteroid orbits similar to that of 1221 Amor",
            "orbit_class_range": "1.017 AU < q (perihelion) < 1.3 AU"
        }
    },
    "is_sentry_object": false
}